NORAD_CAT_ID,OBJECT_NAME,OBJECT_TYPE,EPOCH,MEAN_MOTION,ECCENTRICITY,INCLINATION,RA_OF_ASC_NODE,ARG_OF_PERICENTER,MEAN_ANOMALY,BSTAR,MEAN_MOTION_DOT,MEAN_MOTION_DDOT,TLE_LINE0,TLE_LINE1,TLE_LINE2,SEMIMAJOR_AXIS,PERIOD,APOGEE,PERIGEE,DECAYED
52114.0,STARLINK-3737,PAYLOAD,2022-07-02 14:00:01,15.08860636,0.0001737,53.2137,2.0215,55.8862,100.9783,-0.00084698,-0.0001375,0.0,0 STARLINK-3737,1 52114U 22029AC  22183.58334491 -.00013750  00000-0 -84698-3 0  9997,2 52114  53.2137   2.0215 0001737  55.8862 100.9783 15.08860636 17579,6917.816999999999,95.436,540.884,538.481,0.0
52114.0,STARLINK-3737,PAYLOAD,2022-07-02 22:00:00,15.08840677,0.000185,53.2137,0.5266,47.9518,120.5388,0.0021236,0.00033672,0.0,0 STARLINK-3737,1 52114U 22029AC  22183.91667824  .00033672  00000-0  21236-2 0  9994,2 52114  53.2137   0.5266 0001850  47.9518 120.5388 15.08840677  1300,6917.878000000002,95.438,541.023,538.464,0.0
52114.0,STARLINK-3737,PAYLOAD,2022-07-03 14:00:01,15.0887029,0.0001679,53.2141,357.5321,52.4971,139.2058,-0.0031392,-0.00049944,0.0,0 STARLINK-3737,1 52114U 22029AC  22184.58334491 -.00049944  00000-0 -31392-2 0  9994,2 52114  53.2141 357.5321 0001679  52.4971 139.2058 15.08870290 17723,6917.788000000001,95.436,540.814,538.491,0.0
52114.0,STARLINK-3737,PAYLOAD,2022-07-03 22:00:00,15.08809566,0.0001819,53.2141,356.037,44.9851,158.3331,0.0012834,0.00020179,0.0,0 STARLINK-3737,1 52114U 22029AC  22184.91667824  .00020179  00000-0  12834-2 0  9997,2 52114  53.2141 356.0370 0001819  44.9851 158.3331 15.08809566  1301,6917.973000000001,95.439,541.097,538.58,0.0
52114.0,STARLINK-3737,PAYLOAD,2022-07-04 14:00:01,15.08817759,0.0001778,53.2146,353.0429,53.185,173.2481,-0.0011425,-0.00018414,0.0,0 STARLINK-3737,1 52114U 22029AC  22185.58334491 -.00018414  00000-0 -11425-2 0  9998,2 52114  53.2146 353.0429 0001778  53.1850 173.2481 15.08817759 17877,6917.948,95.439,541.043,538.5830000000002,0.0
52114.0,STARLINK-3737,PAYLOAD,2022-07-04 22:00:00,15.08789547,0.0001917,53.2145,351.5479,46.9344,191.0685,0.003328,0.00053003,0.0,0 STARLINK-3737,1 52114U 22029AC  22185.91667824  .00053003  00000-0  33280-2 0  9998,2 52114  53.2145 351.5479 0001917  46.9344 191.0685 15.08789547  1305,6918.035,95.441,541.226,538.573,0.0
52114.0,STARLINK-3737,PAYLOAD,2022-07-05 14:00:01,15.08839611,0.0001801,53.2149,348.5539,53.3068,207.8205,-0.0011942,-0.00019244,0.0,0 STARLINK-3737,1 52114U 22029AC  22186.58334491 -.00019244  00000-0 -11942-2 0  9995,2 52114  53.2149 348.5539 0001801  53.3068 207.8205 15.08839611  1301,6917.882,95.438,540.992,538.501,0.0
52114.0,STARLINK-3737,PAYLOAD,2022-07-05 22:00:00,15.0881094,0.0001914,53.2146,347.0587,47.7289,224.9881,0.0028324,0.00045042,0.0,0 STARLINK-3737,1 52114U 22029AC  22186.91667824  .00045042  00000-0  28324-2 0  9996,2 52114  53.2146 347.0587 0001914  47.7289 224.9881 15.08810940  1306,6917.969,95.439,541.158,538.51,0.0
52114.0,STARLINK-3737,PAYLOAD,2022-07-06 14:00:01,15.08854493,0.0001786,53.2148,344.0648,53.9079,241.9732,-0.0014922,-0.00023968,0.0,0 STARLINK-3737,1 52114U 22029AC  22187.58334491 -.00023968  00000-0 -14922-2 0  9995,2 52114  53.2148 344.0648 0001786  53.9079 241.9732 15.08854493 18185,6917.8359999999975,95.437,540.937,538.466,0.0
52114.0,STARLINK-3737,PAYLOAD,2022-07-06 22:00:00,15.088281099999998,0.0001877,53.2143,342.5694,48.5385,258.9471,0.0021995,0.0003488,0.0,0 STARLINK-3737,1 52114U 22029AC  22187.91667824  .00034880  00000-0  21995-2 0  9992,2 52114  53.2143 342.5694 0001877  48.5385 258.9471 15.08828110  1306,6917.917,95.438,541.08,538.4830000000002,0.0
52114.0,STARLINK-3737,PAYLOAD,2022-07-07 03:00:06,15.08831925,0.00018,53.2152,341.6321,51.9451,308.1703,0.0001805,2.585e-05,0.0,0 STARLINK-3737,1 52114U 22029AC  22188.12507843  .00002585  00000-0  18050-3 0  9996,2 52114  53.2152 341.6321 0001800  51.9451 308.1703 15.08831925 18268,6917.905,95.438,541.015,538.525,0.0
52114.0,STARLINK-3737,PAYLOAD,2022-07-07 14:00:01,15.08870874,0.000176,53.2144,339.5756,54.4308,276.2626,-0.0015988,-0.00025665,0.0,0 STARLINK-3737,1 52114U 22029AC  22188.58334491 -.00025665  00000-0 -15988-2 0  9995,2 52114  53.2144 339.5756 0001760  54.4308 276.2626 15.08870874  1303,6917.786,95.436,540.869,538.433,0.0
52114.0,STARLINK-3737,PAYLOAD,2022-07-07 22:00:00,15.08858329,0.0001795,53.2138,338.0799,48.1566,294.1577,-0.0011655,-0.00018799,0.0,0 STARLINK-3737,1 52114U 22029AC  22188.91667824 -.00018799  00000-0 -11655-2 0  9998,2 52114  53.2138 338.0799 0001795  48.1566 294.1577 15.08858329 18382,6917.824000000001,95.436,540.931,538.448,0.0
52114.0,STARLINK-3737,PAYLOAD,2022-07-08 14:00:01,15.08882595,0.000168,53.2137,335.0861,51.5053,314.052,-0.00074974,-0.00012214,0.0,0 STARLINK-3737,1 52114U 22029AC  22189.58334491 -.00012214  00000-0 -74974-3 0  9993,2 52114  53.2137 335.0861 0001680  51.5053 314.0520 15.08882595 18483,6917.75,95.435,540.7769999999998,538.453,0.0
52114.0,STARLINK-3737,PAYLOAD,2022-07-08 22:00:01,15.08886261,0.0001702,53.2131,333.5901,44.507,332.7471,-0.00091509,-0.00014841,0.0,0 STARLINK-3737,1 52114U 22029AC  22189.91668981 -.00014841  00000-0 -91509-3 0  9995,2 52114  53.2131 333.5901 0001702  44.5070 332.7471 15.08886261  1300,6917.739000000001,95.435,540.781,538.427,0.0
52114.0,STARLINK-3737,PAYLOAD,2022-07-09 14:00:01,15.08816336,0.0001595,53.2132,330.5964,48.4688,351.9464,-0.0027198,-0.00043286,0.0,0 STARLINK-3737,1 52114U 22029AC  22190.58334491 -.00043286  00000-0 -27198-2 0  9993,2 52114  53.2132 330.5964 0001595  48.4688 351.9464 15.08816336 18630,6917.953,95.439,540.9209999999998,538.714,0.0
52114.0,STARLINK-3737,PAYLOAD,2022-07-09 20:00:01,15.08773009,0.0001709,53.2131,329.4748,44.848,274.2361,0.003092,0.00049175,0.0,0 STARLINK-3737,1 52114U 22029AC  22190.83334491  .00049175  00000-0  30920-2 0  9999,2 52114  53.2131 329.4748 0001709  44.8480 274.2361 15.08773009  1301,6918.085,95.442,541.132,538.768,0.0
52114.0,STARLINK-3737,PAYLOAD,2022-07-10 06:00:00,15.08779194,0.0001527,53.2131,327.6020000000001,50.4615,13.0555,0.0032235,0.00051302,0.0,0 STARLINK-3737,1 52114U 22029AC  22191.25001157  .00051302  00000-0  32235-2 0  9992,2 52114  53.2131 327.6020 0001527  50.4615  13.0555 15.08779194 18735,6918.066,95.441,540.988,538.875,0.0
52114.0,STARLINK-3737,PAYLOAD,2022-07-10 14:00:01,15.08823477,0.0001695,53.2132,326.1069,48.5554,26.5045,-0.0014078,-0.00022613,0.0,0 STARLINK-3737,1 52114U 22029AC  22191.58334491 -.00022613  00000-0 -14078-2 0  9998,2 52114  53.2132 326.1069 0001695  48.5554  26.5045 15.08823477  1301,6917.931,95.439,540.9680000000002,538.623,0.0
52114.0,STARLINK-3737,PAYLOAD,2022-07-10 22:00:00,15.08819878,0.0001761999999999,53.2131,324.6106,43.2742,43.352,0.00080229,0.00012497,0.0,0 STARLINK-3737,1 52114U 22029AC  22191.91667824  .00012497  00000-0  80229-3 0  9993,2 52114  53.2131 324.6106 0001762  43.2742  43.3520 15.08819878 18832,6917.941999999999,95.439,541.026,538.5880000000002,0.0
52114.0,STARLINK-3737,PAYLOAD,2022-07-11 14:00:01,15.08849245,0.0001774,53.2137,321.6173,47.4008,62.3877,-0.0010591,-0.00017109,0.0,0 STARLINK-3737,1 52114U 22029AC  22192.58334491 -.00017109  00000-0 -10591-2 0  9999,2 52114  53.2137 321.6173 0001774  47.4008  62.3877 15.08849245  1304,6917.852,95.437,540.944,538.49,0.0
52114.0,STARLINK-3737,PAYLOAD,2022-07-11 22:00:00,15.08851114,0.0001834,53.2137,320.1209,43.6522,77.7318,0.00040035,6.091e-05,0.0,0 STARLINK-3737,1 52114U 22029AC  22192.91667824  .00006091  00000-0  40035-3 0  9998,2 52114  53.2137 320.1209 0001834  43.6522  77.7318 15.08851114  1302,6917.846,95.437,540.98,538.443,0.0
52114.0,STARLINK-3737,PAYLOAD,2022-07-12 14:00:01,15.08854578,0.0001906,53.2143,317.1278,48.3101,96.3151,-0.00052363,-8.616e-05,0.0,0 STARLINK-3737,1 52114U 22029AC  22193.58334491 -.00008616  00000-0 -52363-3 0  9997,2 52114  53.2143 317.1278 0001906  48.3101  96.3151 15.08854578  1305,6917.8359999999975,95.437,541.019,538.382,0.0
52114.0,STARLINK-3737,PAYLOAD,2022-07-12 22:00:00,15.08883959,0.0001924,53.2141,315.6312,45.453,110.7824,-0.0019175,-0.00030713,0.0,0 STARLINK-3737,1 52114U 22029AC  22193.91667824 -.00030713  00000-0 -19175-2 0  9999,2 52114  53.2141 315.6312 0001924  45.4530 110.7824 15.08883959  1302,6917.746,95.435,540.942,538.28,0.0
52114.0,STARLINK-3737,PAYLOAD,2022-07-13 14:00:01,15.088394699999998,0.0001893,53.2146,312.6385,47.9811,131.4893,-0.001556,-0.00024967,0.0,0 STARLINK-3737,1 52114U 22029AC  22194.58334491 -.00024967  00000-0 -15560-2 0  9992,2 52114  53.2146 312.6385 0001893  47.9811 131.4893 15.08839470 19234,6917.882,95.438,541.057,538.437,0.0
52114.0,STARLINK-3737,PAYLOAD,2022-07-13 22:00:00,15.08831191,0.0001837,53.2144,311.1419,44.8015,146.2516,-0.0018003,-0.00028819,0.0,0 STARLINK-3737,1 52114U 22029AC  22194.91667824 -.00028819  00000-0 -18003-2 0  9993,2 52114  53.2144 311.1419 0001837  44.8015 146.2516 15.08831191  1301,6917.906999999997,95.438,541.043,538.501,0.0
52114.0,STARLINK-3737,PAYLOAD,2022-07-14 14:00:01,15.08825282,0.0001801,53.2145,308.1496,46.3586,167.8302,-0.00032755,-5.495e-05,0.0,0 STARLINK-3737,1 52114U 22029AC  22195.58334491 -.00005495  00000-0 -32755-3 0  9994,2 52114  53.2145 308.1496 0001801  46.3586 167.8302 15.08825282 19387,6917.925,95.438,541.036,538.544,0.0
52114.0,STARLINK-3737,PAYLOAD,2022-07-14 22:00:00,15.08845414,0.0001771,53.214,306.6529,45.1388,180.6219,-0.0012028,-0.00019383,0.0,0 STARLINK-3737,1 52114U 22029AC  22195.91667824 -.00019383  00000-0 -12028-2 0  9991,2 52114  53.2140 306.6529 0001771  45.1388 180.6219 15.08845414  1307,6917.864000000001,95.437,540.9540000000002,538.504,0.0
52114.0,STARLINK-3737,PAYLOAD,2022-07-15 06:00:00,15.08824834,0.0001622,53.214,305.1553,51.574,185.7812,0.0025195,0.00040021,0.0,0 STARLINK-3737,1 52114U 22029AC  22196.25001157  .00040021  00000-0  25195-2 0  9990,2 52114  53.2140 305.1553 0001622  51.5740 185.7812 15.08824834 19482,6917.927,95.439,540.914,538.67,0.0
